OBJECT_NAME,OBJECT_ID,EPOCH,MEAN_MOTION,ECCENTRICITY,INCLINATION,RA_OF_ASC_NODE,ARG_OF_PERICENTER,MEAN_ANOMALY,EPHEMERIS_TYPE,CLASSIFICATION_TYPE,NORAD_CAT_ID,ELEMENT_SET_NO,REV_AT_EPOCH,BSTAR,MEAN_MOTION_DOT,MEAN_MOTION_DDOT
TIANHUI 6A,2023-030A,2025-12-06T14:05:48.020640,14.01352584,.00008815,99.0167,346.2036,80.1007,280.0258,0,U,55836,999,14042,.29979576E-3,.408E-5,0
TIANHUI 6B,2023-030D,2025-12-06T14:05:42.979200,14.01350880,.00007964,99.0167,346.2027,11.8141,348.3043,0,U,55839,999,14041,.28560379E-3,.386E-5,0
LUCH-5X (OLYMP-K 2),2023-031A,2025-12-06T10:32:07.566144,1.00270738,.0000646,0.0477,86.2592,343.1326,226.1071,0,U,55841,999,1000,0,.4E-6,0
HORUS 2,2023-032A,2025-12-06T11:16:55.125408,15.23582441,.00027222,97.3756,54.5286,88.5354,271.6195,0,U,55844,999,15214,.5370551E-3,.1279E-3,0
SHIYAN-19 (SY-19),2023-034A,2025-12-06T15:02:11.150016,15.48717199,.00068312,97.4108,185.9270,344.4150,15.6889,0,U,55861,999,15268,.51295566E-3,.27469E-3,0
ELECTRON KICK STAGE R/B,2023-035A,2025-12-06T13:45:58.492224,15.07588868,.00053925,44.1759,88.4431,223.4077,136.6361,0,U,55908,999,14926,.91978867E-3,.14022E-3,0
GAOFEN-13 02,2023-036A,2025-12-06T11:54:38.526336,1.00270148,.00044382,1.0932,337.4223,325.0481,99.9672,0,U,55912,999,1016,0,-.211E-5,0
STARLINK-5856,2023-037A,2025-12-06T15:03:56.631456,14.98338260,.00029177,69.9989,179.2493,271.4789,88.6036,0,U,55914,999,15023,-.37521628E-4,-.541E-5,0
STARLINK-5859,2023-037B,2025-12-06T14:39:53.352288,14.98333230,.00029123,69.9987,179.1885,269.5554,90.5272,0,U,55915,999,15023,-.31703558E-3,-.3874E-4,0
STARLINK-5796,2023-037C,2025-12-06T14:57:56.177568,14.98350520,.00037727,69.9988,179.2342,278.4615,81.6116,0,U,55916,999,14954,-.5826616E-3,-.7042E-4,0
STARLINK-5867,2023-037E,2025-12-06T14:51:55.658016,14.98324953,.0003166,69.9986,179.2185,269.6961,90.3835,0,U,55918,999,14954,-.30480541E-4,-.457E-5,0
STARLINK-5871,2023-037F,2025-12-06T14:40:08.329728,14.98330510,.00024236,69.9992,179.1901,263.7651,96.3232,0,U,55919,999,14954,-.58802732E-4,-.794E-5,0
STARLINK-5862,2023-037G,2025-12-06T14:45:35.263872,14.98324288,.00030372,69.9993,159.3256,266.4197,93.6614,0,U,55920,999,15003,-.10150457E-3,-.1304E-4,0
STARLINK-5861,2023-037H,2025-12-05T23:50:40.164288,14.98322036,.00027706,69.9987,180.6450,269.3936,90.6906,0,U,55921,999,14945,.11938384E-4,.49E-6,0
STARLINK-5863,2023-037J,2025-12-06T14:21:51.909408,14.98333319,.00025452,69.9986,179.1444,273.9198,86.1670,0,U,55922,999,14954,.53861941E-4,.55E-5,0
STARLINK-5854,2023-037K,2025-12-06T14:27:59.438592,14.98256249,.0002787,70.0000,179.1554,274.5046,85.5795,0,U,55923,999,14954,-.90971314E-3,-.1091E-3,0
STARLINK-5849,2023-037L,2025-12-06T14:39:34.865280,14.98344197,.00036356,69.9987,159.3092,267.1438,92.9305,0,U,55924,999,15003,-.23603118E-3,-.2909E-4,0
STARLINK-5922,2023-037M,2025-12-06T14:09:50.639616,14.98336098,.00031358,69.9993,179.1143,269.3637,90.7162,0,U,55925,999,14954,.16481867E-3,.1874E-4,0
STARLINK-5921,2023-037N,2025-12-06T14:27:29.688480,14.98371127,.00025528,69.9994,159.2822,236.2082,123.8835,0,U,55926,999,15003,.41601407E-3,.4879E-4,0
STARLINK-5919,2023-037P,2025-12-06T13:58:03.812448,14.98339936,.00020645,69.9991,179.0865,283.5741,76.5188,0,U,55927,999,14954,-.28306094E-3,-.3469E-4,0
STARLINK-5930,2023-037Q,2025-12-06T15:27:56.934144,14.98330383,.0002819,69.9993,178.9031,271.4900,88.5936,0,U,55928,999,14955,.2754421E-5,-.6E-6,0
STARLINK-5896,2023-037S,2025-12-06T16:00:03.000096,14.98355932,.00032429,69.9996,158.9466,269.4866,234.5077,0,U,55930,999,577,-.29947798E-2,-.3567E-3,0
STARLINK-5897,2023-037T,2025-12-06T15:21:58.495104,14.98316053,.000331,70.0012,178.8901,272.1477,87.9303,0,U,55931,999,14955,-.50062932E-4,-.69E-5,0
STARLINK-5848,2023-037U,2025-12-06T14:21:10.478880,14.98326299,.00031496,69.9993,138.9835,271.4343,88.6456,0,U,55932,999,15053,-.32012801E-4,-.475E-5,0
STARLINK-5852,2023-037V,2025-12-06T14:21:33.090624,14.98319690,.00028475,69.9992,159.2695,266.7365,93.3469,0,U,55933,999,15003,-.14033944E-3,-.1767E-4,0
STARLINK-5927,2023-037W,2025-12-06T05:45:02.873376,14.98331611,.00029794,69.9985,160.0211,270.3041,89.7777,0,U,55934,999,14998,-.73098283E-4,-.965E-5,0
STARLINK-5920,2023-037X,2025-12-05T22:14:11.854176,14.98321631,.00027657,69.9989,160.9363,269.8499,90.2343,0,U,55935,999,14993,.14133988E-3,.1593E-4,0
STARLINK-5882,2023-037Y,2025-12-06T14:27:11.570400,14.98330700,.00031941,69.9987,138.9979,270.4841,89.5952,0,U,55936,999,15053,.12175664E-3,.136E-4,0
STARLINK-5913,2023-037Z,2025-12-06T14:09:31.256640,14.98334548,.00029543,69.9988,159.2377,268.8732,91.2088,0,U,55937,999,15003,.25262228E-4,.208E-5,0
STARLINK-5909,2023-037AA,2025-12-06T14:03:32.221440,14.98304013,.00030183,69.9982,159.2230,275.3986,84.6829,0,U,55938,999,15003,.49058786E-3,.5761E-4,0
