[{"norad_id":"55844","company":"SATNOGS","tle_line2":"2 55844  97.3756  54.5286 0002722  88.5354 271.6195 15.23582441152140","launch_date":"2023-03-13","type":"LEO","tle_line1":"1 55844U 23032A   25340.47008247  .00012790  00000+0  53706-3 0  9994","satellite_name":"HORUS 2"},{"norad_id":"55914","company":"STARLINK","tle_line2":"2 55914  69.9989 179.2493 0002917 271.4789  88.6036 14.98338260150234","launch_date":"2023-03-17","type":"LEO","tle_line1":"1 55914U 23037A   25340.62773879 -.00000541  00000+0 -37522-4 0  9996","satellite_name":"STARLINK-5856"},{"norad_id":"55915","company":"STARLINK","tle_line2":"2 55915  69.9987 179.1885 0002912 269.5554  90.5272 14.98333230150236","launch_date":"2023-03-17","type":"LEO","tle_line1":"1 55915U 23037B   25340.61103417 -.00003874  00000+0 -31704-3 0  9998","satellite_name":"STARLINK-5859"},{"norad_id":"55916","company":"STARLINK","tle_line2":"2 55916  69.9988 179.2342 0003772 278.4615  81.6116 14.98350520149540","launch_date":"2023-03-17","type":"LEO","tle_line1":"1 55916U 23037C   25340.62356687 -.00007042  00000+0 -58266-3 0  9992","satellite_name":"STARLINK-5796"},{"norad_id":"55918","company":"STARLINK","tle_line2":"2 55918  69.9986 179.2185 0003166 269.6961  90.3835 14.98324953149544","launch_date":"2023-03-17","type":"LEO","tle_line1":"1 55918U 23037E   25340.61939419 -.00000457  00000+0 -30481-4 0  9996","satellite_name":"STARLINK-5867"},{"norad_id":"55919","company":"STARLINK","tle_line2":"2 55919  69.9992 179.1901 0002423 263.7651  96.3232 14.98330510149546","launch_date":"2023-03-17","type":"LEO","tle_line1":"1 55919U 23037F   25340.61120752 -.00000794  00000+0 -58803-4 0  9991","satellite_name":"STARLINK-5871"},{"norad_id":"55920","company":"STARLINK","tle_line2":"2 55920  69.9993 159.3256 0003037 266.4197  93.6614 14.98324288150034","launch_date":"2023-03-17","type":"LEO","tle_line1":"1 55920U 23037G   25340.61499148 -.00001304  00000+0 -10150-3 0  9991","satellite_name":"STARLINK-5862"},{"norad_id":"55921","company":"STARLINK","tle_line2":"2 55921  69.9987 180.6450 0002770 269.3936  90.6906 14.98322036149451","launch_date":"2023-03-17","type":"LEO","tle_line1":"1 55921U 23037H   25339.99352042  .00000049  00000+0  11938-4 0  9991","satellite_name":"STARLINK-5861"},{"norad_id":"55922","company":"STARLINK","tle_line2":"2 55922  69.9986 179.1444 0002545 273.9198  86.1670 14.98333319149542","launch_date":"2023-03-17","type":"LEO","tle_line1":"1 55922U 23037J   25340.59851747  .00000550  00000+0  53862-4 0  9995","satellite_name":"STARLINK-5863"},{"norad_id":"55923","company":"STARLINK","tle_line2":"2 55923  70.0000 179.1554 0002787 274.5046  85.5795 14.98256249149549","launch_date":"2023-03-17","type":"LEO","tle_line1":"1 55923U 23037K   25340.60277128 -.00010910  00000+0 -90971-3 0  9997","satellite_name":"STARLINK-5854"},{"norad_id":"55924","company":"STARLINK","tle_line2":"2 55924  69.9987 159.3092 0003635 267.1438  92.9305 14.98344197150039","launch_date":"2023-03-17","type":"LEO","tle_line1":"1 55924U 23037L   25340.61082020 -.00002909  00000+0 -23603-3 0  9991","satellite_name":"STARLINK-5849"},{"norad_id":"55925","company":"STARLINK","tle_line2":"2 55925  69.9993 179.1143 0003135 269.3637  90.7162 14.98336098149546","launch_date":"2023-03-17","type":"LEO","tle_line1":"1 55925U 23037M   25340.59016944  .00001874  00000+0  16482-3 0  9996","satellite_name":"STARLINK-5922"},{"norad_id":"55926","company":"STARLINK","tle_line2":"2 55926  69.9994 159.2822 0002552 236.2082 123.8835 14.98371127150033","launch_date":"2023-03-17","type":"LEO","tle_line1":"1 55926U 23037N   25340.60242695  .00004879  00000+0  41601-3 0  9992","satellite_name":"STARLINK-5921"},{"norad_id":"55927","company":"STARLINK","tle_line2":"2 55927  69.9991 179.0865 0002064 283.5741  76.5188 14.98339936149544","launch_date":"2023-03-17","type":"LEO","tle_line1":"1 55927U 23037P   25340.58198857 -.00003469  00000+0 -28306-3 0  9993","satellite_name":"STARLINK-5919"},{"norad_id":"55928","company":"STARLINK","tle_line2":"2 55928  69.9993 178.9031 0002819 271.4900  88.5936 14.98330383149553","launch_date":"2023-03-17","type":"LEO","tle_line1":"1 55928U 23037Q   25340.64440896 -.00000060  00000+0  27544-5 0  9992","satellite_name":"STARLINK-5930"},{"norad_id":"55930","company":"STARLINK","tle_line2":"2 55930  69.9996 158.9466 0003242 269.4866 234.5077 14.98355932  5779","launch_date":"2023-03-17","type":"LEO","tle_line1":"1 55930U 23037S   25340.66670139 -.00035670  00000+0 -29948-2 0  9995","satellite_name":"STARLINK-5896"},{"norad_id":"55931","company":"STARLINK","tle_line2":"2 55931  70.0012 178.8901 0003310 272.1477  87.9303 14.98316053149550","launch_date":"2023-03-17","type":"LEO","tle_line1":"1 55931U 23037T   25340.64026036 -.00000690  00000+0 -50063-4 0  9993","satellite_name":"STARLINK-5897"},{"norad_id":"55932","company":"STARLINK","tle_line2":"2 55932  69.9993 138.9835 0003149 271.4343  88.6456 14.98326299150533","launch_date":"2023-03-17","type":"LEO","tle_line1":"1 55932U 23037U   25340.59803795 -.00000475  00000+0 -32013-4 0  9999","satellite_name":"STARLINK-5848"},{"norad_id":"55933","company":"STARLINK","tle_line2":"2 55933  69.9992 159.2695 0002847 266.7365  93.3469 14.98319690150037","launch_date":"2023-03-17","type":"LEO","tle_line1":"1 55933U 23037V   25340.59829966 -.00001767  00000+0 -14034-3 0  9995","satellite_name":"STARLINK-5852"},{"norad_id":"55934","company":"STARLINK","tle_line2":"2 55934  69.9985 160.0211 0002979 270.3041  89.7777 14.98331611149982","launch_date":"2023-03-17","type":"LEO","tle_line1":"1 55934U 23037W   25340.23961659 -.00000965  00000+0 -73098-4 0  9998","satellite_name":"STARLINK-5927"},{"norad_id":"55935","company":"STARLINK","tle_line2":"2 55935  69.9989 160.9363 0002765 269.8499  90.2343 14.98321631149939","launch_date":"2023-03-17","type":"LEO","tle_line1":"1 55935U 23037X   25339.92652609  .00001593  00000+0  14134-3 0  9996","satellite_name":"STARLINK-5920"},{"norad_id":"55936","company":"STARLINK","tle_line2":"2 55936  69.9987 138.9979 0003194 270.4841  89.5952 14.98330700150534","launch_date":"2023-03-17","type":"LEO","tle_line1":"1 55936U 23037Y   25340.60221725  .00001360  00000+0  12176-3 0  9991","satellite_name":"STARLINK-5882"},{"norad_id":"55937","company":"STARLINK","tle_line2":"2 55937  69.9988 159.2377 0002954 268.8732  91.2088 14.98334548150036","launch_date":"2023-03-17","type":"LEO","tle_line1":"1 55937U 23037Z   25340.58994510  .00000208  00000+0  25262-4 0  9999","satellite_name":"STARLINK-5913"},{"norad_id":"55938","company":"STARLINK","tle_line2":"2 55938  69.9982 159.2230 0003018 275.3986  84.6829 14.98304013150038","launch_date":"2023-03-17","type":"LEO","tle_line1":"1 55938U 23037AA  25340.58578960  .00005761  00000+0  49059-3 0  9995","satellite_name":"STARLINK-5909"},{"norad_id":"55836","company":"ACTIVE","tle_line2":"2 55836  99.0167 346.2036 0000881  80.1007 280.0258 14.01352584140427","launch_date":"2023-03-09","type":"LEO","tle_line1":"1 55836U 23030A   25340.58736135  .00000408  00000+0  29980-3 0  9999","satellite_name":"TIANHUI 6A"},{"norad_id":"55839","company":"ACTIVE","tle_line2":"2 55839  99.0167 346.2027 0000796  11.8141 348.3043 14.01350880140411","launch_date":"2023-03-09","type":"LEO","tle_line1":"1 55839U 23030D   25340.58730300  .00000386  00000+0  28560-3 0  9998","satellite_name":"TIANHUI 6B"},{"norad_id":"55841","company":"ACTIVE","tle_line2":"2 55841   0.0477  86.2592 0000646 343.1326 226.1071  1.00270738 10001","launch_date":"2023-03-12","type":"GEO","tle_line1":"1 55841U 23031A   25340.43897646  .00000040  00000+0  00000+0 0  9995","satellite_name":"LUCH-5X (OLYMP-K 2)"},{"norad_id":"55861","company":"ACTIVE","tle_line2":"2 55861  97.4108 185.9270 0006831 344.4150  15.6889 15.48717199152688","launch_date":"2023-03-15","type":"LEO","tle_line1":"1 55861U 23034A   25340.62651794  .00027469  00000+0  51296-3 0  9994","satellite_name":"SHIYAN-19 (SY-19)"},{"norad_id":"55908","company":"ACTIVE","tle_line2":"2 55908  44.1759  88.4431 0005392 223.4077 136.6361 15.07588868149265","launch_date":"no data","type":"LEO","tle_line1":"1 55908U 23035A   25340.57359366  .00014022  00000+0  91979-3 0  9994","satellite_name":"ELECTRON KICK STAGE R\/B"},{"norad_id":"55912","company":"ACTIVE","tle_line2":"2 55912   1.0932 337.4223 0004438 325.0481  99.9672  1.00270148 10168","launch_date":"2023-03-17","type":"GEO","tle_line1":"1 55912U 23036A   25340.49627924 -.00000211  00000+0  00000+0 0  9996","satellite_name":"GAOFEN-13 02"}]